{
  "type": "FeatureCollection",
  "features": [
    {
      "type": "Feature",
      "properties": {
        "norad_id": 43719,
        "name": "HYSIS",
        "group": "resource",
        "lat": -63.099071961849106,
        "lon": 69.02296600521443,
        "alt_km": 641.174063768718,
        "timestamp": "2025-12-15T22:44:28.581166+00:00",
        "meta_object_name": "HYSIS",
        "meta_object_id": "2018-096A",
        "meta_epoch": "2025-12-15T08:24:52.717824",
        "meta_mean_motion": 14.78657368,
        "meta_eccentricity": 0.00012714,
        "meta_inclination": 98.0098,
        "meta_ra_of_asc_node": 52.3155,
        "meta_arg_of_pericenter": 55.833,
        "meta_mean_anomaly": 304.3001,
        "meta_ephemeris_type": 0,
        "meta_classification_type": "U",
        "meta_norad_cat_id": 43719,
        "meta_element_set_no": 999,
        "meta_rev_at_epoch": 38025,
        "meta_bstar": 0.00029853477,
        "meta_mean_motion_dot": 2.136e-05,
        "meta_mean_motion_ddot": 0,
        "tle_line1": "1 43719U 18096A   25349.35061016  .00002136  00000+0  29853-3 0  9994",
        "tle_line2": "2 43719  98.0098  52.3155 0001271  55.8330 304.3001 14.78657368380250"
      },
      "geometry": {
        "type": "Point",
        "coordinates": [
          69.02296600521443,
          -63.099071961849106
        ]
      }
    },
    {
      "type": "Feature",
      "properties": {
        "norad_id": 43783,
        "name": "KAZSTSAT",
        "group": "resource",
        "lat": 50.040983166862915,
        "lon": 16.003653543124425,
        "alt_km": 564.6155487031447,
        "timestamp": "2025-12-15T22:44:28.581177+00:00",
        "meta_object_name": "KAZSTSAT",
        "meta_object_id": "2018-099AB",
        "meta_epoch": "2025-12-15T08:06:04.214592",
        "meta_mean_motion": 14.99359645,
        "meta_eccentricity": 0.00058736,
        "meta_inclination": 97.4556,
        "meta_ra_of_asc_node": 24.4115,
        "meta_arg_of_pericenter": 318.825,
        "meta_mean_anomaly": 41.253,
        "meta_ephemeris_type": 0,
        "meta_classification_type": "U",
        "meta_norad_cat_id": 43783,
        "meta_element_set_no": 999,
        "meta_rev_at_epoch": 38375,
        "meta_bstar": 6.5780009e-05,
        "meta_mean_motion_dot": 7.49e-06,
        "meta_mean_motion_ddot": 0,
        "tle_line1": "1 43783U 18099AB  25349.33754878  .00000749  00000+0  65780-4 0  9999",
        "tle_line2": "2 43783  97.4556  24.4115 0005873 318.8250  41.2530 14.99359645383756"
      },
      "geometry": {
        "type": "Point",
        "coordinates": [
          16.003653543124425,
          50.040983166862915
        ]
      }
    },
    {
      "type": "Feature",
      "properties": {
        "norad_id": 43831,
        "name": "SAUDISAT 5A",
        "group": "resource",
        "lat": 46.229161953533406,
        "lon": 42.3485800809218,
        "alt_km": 477.14954370917894,
        "timestamp": "2025-12-15T22:44:28.581187+00:00",
        "meta_object_name": "SAUDISAT 5A",
        "meta_object_id": "2018-102A",
        "meta_epoch": "2025-12-15T08:22:15.341952",
        "meta_mean_motion": 15.25692662,
        "meta_eccentricity": 0.00116732,
        "meta_inclination": 97.3356,
        "meta_ra_of_asc_node": 49.4895,
        "meta_arg_of_pericenter": 68.2124,
        "meta_mean_anomaly": 292.0356,
        "meta_ephemeris_type": 0,
        "meta_classification_type": "U",
        "meta_norad_cat_id": 43831,
        "meta_element_set_no": 999,
        "meta_rev_at_epoch": 38762,
        "meta_bstar": 0.00018518278,
        "meta_mean_motion_dot": 4.654e-05,
        "meta_mean_motion_ddot": 0,
        "tle_line1": "1 43831U 18102A   25349.34878868  .00004654  00000+0  18518-3 0  9990",
        "tle_line2": "2 43831  97.3356  49.4895 0011673  68.2124 292.0356 15.25692662387621"
      },
      "geometry": {
        "type": "Point",
        "coordinates": [
          42.3485800809218,
          46.229161953533406
        ]
      }
    },
    {
      "type": "Feature",
      "properties": {
        "norad_id": 43833,
        "name": "SAUDISAT 5B",
        "group": "resource",
        "lat": 74.88012440082207,
        "lon": -98.66224064239354,
        "alt_km": 473.54069015238747,
        "timestamp": "2025-12-15T22:44:28.581202+00:00",
        "meta_object_name": "SAUDISAT 5B",
        "meta_object_id": "2018-102C",
        "meta_epoch": "2025-12-15T08:07:41.480256",
        "meta_mean_motion": 15.26043678,
        "meta_eccentricity": 0.00124008,
        "meta_inclination": 97.3451,
        "meta_ra_of_asc_node": 52.2229,
        "meta_arg_of_pericenter": 70.4841,
        "meta_mean_anomaly": 289.7735,
        "meta_ephemeris_type": 0,
        "meta_classification_type": "U",
        "meta_norad_cat_id": 43833,
        "meta_element_set_no": 999,
        "meta_rev_at_epoch": 38773,
        "meta_bstar": 0.00018793826,
        "meta_mean_motion_dot": 4.776e-05,
        "meta_mean_motion_ddot": 0,
        "tle_line1": "1 43833U 18102C   25349.33867454  .00004776  00000+0  18794-3 0  9991",
        "tle_line2": "2 43833  97.3451  52.2229 0012400  70.4841 289.7735 15.26043678387736"
      },
      "geometry": {
        "type": "Point",
        "coordinates": [
          -98.66224064239354,
          74.88012440082207
        ]
      }
    },
    {
      "type": "Feature",
      "properties": {
        "norad_id": 44622,
        "name": "GAOFEN-10R",
        "group": "resource",
        "lat": -81.71399133775789,
        "lon": 41.74434443241237,
        "alt_km": 630.897263292406,
        "timestamp": "2025-12-15T22:44:28.581213+00:00",
        "meta_object_name": "GAOFEN-10R",
        "meta_object_id": "2019-066A",
        "meta_epoch": "2025-12-15T08:34:47.652672",
        "meta_mean_motion": 14.82801287,
        "meta_eccentricity": 0.00077205,
        "meta_inclination": 98.0281,
        "meta_ra_of_asc_node": 296.8739,
        "meta_arg_of_pericenter": 34.3495,
        "meta_mean_anomaly": 325.8216,
        "meta_ephemeris_type": 0,
        "meta_classification_type": "U",
        "meta_norad_cat_id": 44622,
        "meta_element_set_no": 999,
        "meta_rev_at_epoch": 33513,
        "meta_bstar": 0.00022073199,
        "meta_mean_motion_dot": 1.731e-05,
        "meta_mean_motion_ddot": 0,
        "tle_line1": "1 44622U 19066A   25349.35749598  .00001731  00000+0  22073-3 0  9991",
        "tle_line2": "2 44622  98.0281 296.8739 0007720  34.3495 325.8216 14.82801287335139"
      },
      "geometry": {
        "type": "Point",
        "coordinates": [
          41.74434443241237,
          -81.71399133775789
        ]
      }
    },
    {
      "type": "Feature",
      "properties": {
        "norad_id": 44804,
        "name": "CARTOSAT-3",
        "group": "resource",
        "lat": 48.59676772143602,
        "lon": -121.96498821746977,
        "alt_km": 498.87117082176337,
        "timestamp": "2025-12-15T22:44:28.581223+00:00",
        "meta_object_name": "CARTOSAT-3",
        "meta_object_id": "2019-081A",
        "meta_epoch": "2025-12-15T07:56:29.690880",
        "meta_mean_motion": 15.19176014,
        "meta_eccentricity": 0.00140688,
        "meta_inclination": 97.4584,
        "meta_ra_of_asc_node": 48.8816,
        "meta_arg_of_pericenter": 74.7867,
        "meta_mean_anomaly": 285.4922,
        "meta_ephemeris_type": 0,
        "meta_classification_type": "U",
        "meta_norad_cat_id": 44804,
        "meta_element_set_no": 999,
        "meta_rev_at_epoch": 33555,
        "meta_bstar": 0.00016715059,
        "meta_mean_motion_dot": 3.455e-05,
        "meta_mean_motion_ddot": 0,
        "tle_line1": "1 44804U 19081A   25349.33089920  .00003455  00000+0  16715-3 0  9995",
        "tle_line2": "2 44804  97.4584  48.8816 0014068  74.7867 285.4922 15.19176014335550"
      },
      "geometry": {
        "type": "Point",
        "coordinates": [
          -121.96498821746977,
          48.59676772143602
        ]
      }
    },
    {
      "type": "Feature",
      "properties": {
        "norad_id": 44819,
        "name": "GAOFEN-12 01",
        "group": "resource",
        "lat": 29.286768160407952,
        "lon": -179.4390077449809,
        "alt_km": 625.436698486933,
        "timestamp": "2025-12-15T22:44:28.581236+00:00",
        "meta_object_name": "GAOFEN-12 01",
        "meta_object_id": "2019-082A",
        "meta_epoch": "2025-12-15T07:28:03.057600",
        "meta_mean_motion": 14.80660234,
        "meta_eccentricity": 0.00014612,
        "meta_inclination": 97.8126,
        "meta_ra_of_asc_node": 355.5247,
        "meta_arg_of_pericenter": 218.3908,
        "meta_mean_anomaly": 141.7201,
        "meta_ephemeris_type": 0,
        "meta_classification_type": "U",
        "meta_norad_cat_id": 44819,
        "meta_element_set_no": 999,
        "meta_rev_at_epoch": 32688,
        "meta_bstar": 7.4714549e-05,
        "meta_mean_motion_dot": 5.23e-06,
        "meta_mean_motion_ddot": 0,
        "tle_line1": "1 44819U 19082A   25349.31114650  .00000523  00000+0  74715-4 0  9997",
        "tle_line2": "2 44819  97.8126 355.5247 0001461 218.3908 141.7201 14.80660234326882"
      },
      "geometry": {
        "type": "Point",
        "coordinates": [
          -179.4390077449809,
          29.286768160407952
        ]
      }
    }
  ]
}